COSMOS 2433 (720)       
1 32275U 07052A   23105.77384517 -.00000067  00000+0  00000+0 0  9998
2 32275  66.0511 354.6356 0002235 295.4087  55.6215  2.13104177120406
COSMOS 2432 (719)       
1 32276U 07052B   23105.77724331 -.00000067  00000+0  00000+0 0  9991
2 32276  66.0657 354.7423 0011321 335.5336 325.5765  2.13103493120402
COSMOS 2434 (721)       
1 32393U 07065A   23105.42167683 -.00000014  00000+0  00000+0 0  9990
2 32393  64.3466 231.1311 0003714  81.6507 249.8534  2.13103084119104
COSMOS 2436 (723)       
1 32395U 07065C   23105.74785446 -.00000018  00000+0  00000+0 0  9994
2 32395  64.3554 231.1801 0016108   5.9695 351.3923  2.13103017119046
COSMOS 2456 (730)       
1 36111U 09070A   23105.90158957  .00000090  00000+0  00000+0 0  9990
2 36111  64.4418 110.6642 0006176 299.4895 201.4343  2.13099238103780
COSMOS 2457 (733)       
1 36112U 09070B   23105.72967770  .00000090  00000+0  00000+0 0  9992
2 36112  64.4258 110.5386 0004050 200.8281 297.8983  2.13101431103789
COSMOS 2460 (732)       
1 36402U 10007C   23105.33114885 -.00000065  00000+0  00000+0 0  9997
2 36402  65.9158 353.3891 0002346  15.5017 164.2665  2.13106383102120
COSMOS 2476 (744)       
1 37867U 11064A   23105.46556538  .00000092  00000+0  00000+0 0  9995
2 37867  64.7244 112.1520 0024059 240.8100 193.7378  2.13101876 89124
COSMOS 2477 (745)       
1 37868U 11064B   23105.74246009  .00000092  00000+0  00000+0 0  9996
2 37868  64.7319 112.2111 0021380 242.1300 222.7806  2.13101701 89087
COSMOS 2475 (743)       
1 37869U 11064C   23105.84059542  .00000092  00000+0  00000+0 0  9992
2 37869  64.7384 112.2182 0026239 256.8960 241.5948  2.13101981 89097
COSMOS 2485 (747)       
1 39155U 13019A   23105.55304682  .00000093  00000+0  00000+0 0  9991
2 39155  64.8857 112.6422 0024273 236.8648 309.1527  2.13101890 77596
COSMOS 2492 (754)       
1 39620U 14012A   23104.74577117 -.00000064  00000+0  00000+0 0  9996
2 39620  65.8007 353.0479 0014220 329.1071 351.8968  2.13103321 70521
COSMOS 2500 (755)       
1 40001U 14032A   23105.83772358 -.00000065  00000+0  00000+0 0  9999
2 40001  65.7391 352.8519 0004005 201.1514  95.5282  2.13105914 68768
COSMOS 2501 (702K)      
1 40315U 14075A   23105.73403155 -.00000018  00000+0  00000+0 0  9997
2 40315  63.6516 230.5984 0018006 205.1746 181.2625  2.13101496 65174
COSMOS 2514 (751)       
1 41330U 16008A   23105.68015251 -.00000064  00000+0  00000+0 0  9994
2 41330  65.5375 352.4713 0007842 212.0111 147.9892  2.13102563 55933
COSMOS 2516 (753)       
1 41554U 16032A   23105.32942315 -.00000013  00000+0  00000+0 0  9994
2 41554  63.8772 230.9746 0014609 212.5048 147.3840  2.13106345 53535
COSMOS 2522 (752)       
1 42939U 17055A   23105.29771608 -.00000012  00000+0  00000+0 0  9998
2 42939  64.1109 231.4590 0006430 235.4741 311.8895  2.13101908 43280
COSMOS 2527 (756)       
1 43508U 18053A   23105.59603546  .00000093  00000+0  00000+0 0  9996
2 43508  65.0495 112.7105 0010077 244.2403 203.9093  2.13102391 37583
COSMOS 2529 (757)       
1 43687U 18086A   23104.70551196 -.00000004  00000+0  00000+0 0  9998
2 43687  64.3271 231.8760 0007599 265.0735 143.4552  2.13102184 34584
COSMOS 2534 (758)       
1 44299U 19030A   23105.38683185 -.00000013  00000+0  00000+0 0  9997
2 44299  64.3996 231.7658 0010525 289.6614  55.8723  2.13102095 30239
COSMOS 2544 (759)       
1 44850U 19088A   23104.95604866  .00000093  00000+0  16595+1 0  9998
2 44850  65.0343 112.5712 0015130 261.5582  98.8369  2.13102370 26002
COSMOS 2545 (760)       
1 45358U 20018A   23105.38945407 -.00000066  00000+0  00000+0 0  9998
2 45358  64.8782 352.8420 0007922 259.4735 282.5458  2.13102756 23962
COSMOS 2547 (705K)      
1 46805U 20075A   23105.77207484 -.00000018  00000+0  00000+0 0  9995
2 46805  64.6259 231.2668 0006062 239.4422  90.3417  2.13103184 19215
COSMOS 2557 (706K)      
1 52984U 22075A   23105.89801287 -.00000069  00000+0  10000-3 0  9997
2 52984  64.7887 354.9990 0012027 289.6333  13.0327  2.13101871  6012
COSMOS 2559 (707K)      
1 54031U 22130A   23105.83326410 -.00000070  00000+0  00000+0 0  9995
2 54031  64.7599 355.1344 0004831 233.2556  64.7304  2.13101065  3996
COSMOS 2564 (761)       
1 54377U 22161A   23105.74342853 -.00000017  00000+0  00000+0 0  9992
2 54377  64.7661 231.2948 0007878 212.4689 227.5098  2.13102185  2940
